[{"norad_id":"56059","company":"ONEWEB","tle_line2":"2 56059  87.9176 287.0142 0002432  80.3969 279.7440 13.21824685129741","launch_date":"2023-03-26","type":"LEO","tle_line1":"1 56059U 23043P   25317.48202821  .00000175  00000+0  39242-3 0  9997","satellite_name":"ONEWEB-0558"},{"norad_id":"56060","company":"ONEWEB","tle_line2":"2 56060  87.9182 286.9787 0002134  88.5294 271.6085 13.21824665129770","launch_date":"2023-03-26","type":"LEO","tle_line1":"1 56060U 23043Q   25317.62191986  .00000112  00000+0  23869-3 0  9993","satellite_name":"ONEWEB-0559"},{"norad_id":"56061","company":"ONEWEB","tle_line2":"2 56061  87.9182 286.9776 0002216  85.0838 275.0549 13.21827828129751","launch_date":"2023-03-26","type":"LEO","tle_line1":"1 56061U 23043R   25317.61533910  .00000099  00000+0  20890-3 0  9995","satellite_name":"ONEWEB-0566"},{"norad_id":"56062","company":"ONEWEB","tle_line2":"2 56062  87.9016 271.7566 0001662  71.9497 288.1815 13.16597025130576","launch_date":"2023-03-26","type":"LEO","tle_line1":"1 56062U 23043S   25317.33155207  .00000234  00000+0  57805-3 0  9991","satellite_name":"ONEWEB-0568"},{"norad_id":"56063","company":"ONEWEB","tle_line2":"2 56063  87.9179 287.0128 0001728  87.5573 272.5759 13.21828006129767","launch_date":"2023-03-26","type":"LEO","tle_line1":"1 56063U 23043T   25317.38164467  .00000106  00000+0  22426-3 0  9994","satellite_name":"ONEWEB-0574"},{"norad_id":"56064","company":"ONEWEB","tle_line2":"2 56064  87.9010 271.7441 0001432  83.0351 277.0943 13.16593168130575","launch_date":"2023-03-26","type":"LEO","tle_line1":"1 56064U 23043U   25317.40122129  .00000213  00000+0  52438-3 0  9992","satellite_name":"ONEWEB-0575"},{"norad_id":"56065","company":"ONEWEB","tle_line2":"2 56065  87.9018 271.7017 0001710  77.3491 282.7831 13.16595043130598","launch_date":"2023-03-26","type":"LEO","tle_line1":"1 56065U 23043V   25317.61022828  .00000037  00000+0  63227-4 0  9994","satellite_name":"ONEWEB-0576"},{"norad_id":"56066","company":"ONEWEB","tle_line2":"2 56066  87.9014 271.7002 0001229  90.5770 269.5502 13.16595138130628","launch_date":"2023-03-26","type":"LEO","tle_line1":"1 56066U 23043W   25317.61655905  .00000046  00000+0  86005-4 0  9992","satellite_name":"ONEWEB-0577"}]