<?xml version="1.0" encoding="UTF-8"?>
<ndm xmlns:xsi="http://www.w3.org/2001/XMLSchema-instance" xsi:noNamespaceSchemaLocation="https://sanaregistry.org/r/ndmxml_unqualified/ndmxml-2.0.0-master-2.0.xsd">
<omm id="CCSDS_OMM_VERS" version="2.0">
<header><CREATION_DATE/><ORIGINATOR/></header><body><segment><metadata><OBJECT_NAME>ONEWEB-0558</OBJECT_NAME><OBJECT_ID>2023-043P</OBJECT_ID><CENTER_NAME>EARTH</CENTER_NAME><REF_FRAME>TEME</REF_FRAME><TIME_SYSTEM>UTC</TIME_SYSTEM><MEAN_ELEMENT_THEORY>SGP4</MEAN_ELEMENT_THEORY></metadata><data><meanElements><EPOCH>2025-11-13T11:34:07.237344</EPOCH><MEAN_MOTION>13.21824685</MEAN_MOTION><ECCENTRICITY>.00024327</ECCENTRICITY><INCLINATION>87.9176</INCLINATION><RA_OF_ASC_NODE>287.0142</RA_OF_ASC_NODE><ARG_OF_PERICENTER>80.3969</ARG_OF_PERICENTER><MEAN_ANOMALY>279.7440</MEAN_ANOMALY></meanElements><tleParameters><EPHEMERIS_TYPE>0</EPHEMERIS_TYPE><CLASSIFICATION_TYPE>U</CLASSIFICATION_TYPE><NORAD_CAT_ID>56059</NORAD_CAT_ID><ELEMENT_SET_NO>999</ELEMENT_SET_NO><REV_AT_EPOCH>12974</REV_AT_EPOCH><BSTAR>.39242153E-3</BSTAR><MEAN_MOTION_DOT>.175E-5</MEAN_MOTION_DOT><MEAN_MOTION_DDOT>0</MEAN_MOTION_DDOT></tleParameters></data></segment></body></omm>
<omm id="CCSDS_OMM_VERS" version="2.0">
<header><CREATION_DATE/><ORIGINATOR/></header><body><segment><metadata><OBJECT_NAME>ONEWEB-0559</OBJECT_NAME><OBJECT_ID>2023-043Q</OBJECT_ID><CENTER_NAME>EARTH</CENTER_NAME><REF_FRAME>TEME</REF_FRAME><TIME_SYSTEM>UTC</TIME_SYSTEM><MEAN_ELEMENT_THEORY>SGP4</MEAN_ELEMENT_THEORY></metadata><data><meanElements><EPOCH>2025-11-13T14:55:33.875904</EPOCH><MEAN_MOTION>13.21824665</MEAN_MOTION><ECCENTRICITY>.00021342</ECCENTRICITY><INCLINATION>87.9182</INCLINATION><RA_OF_ASC_NODE>286.9787</RA_OF_ASC_NODE><ARG_OF_PERICENTER>88.5294</ARG_OF_PERICENTER><MEAN_ANOMALY>271.6085</MEAN_ANOMALY></meanElements><tleParameters><EPHEMERIS_TYPE>0</EPHEMERIS_TYPE><CLASSIFICATION_TYPE>U</CLASSIFICATION_TYPE><NORAD_CAT_ID>56060</NORAD_CAT_ID><ELEMENT_SET_NO>999</ELEMENT_SET_NO><REV_AT_EPOCH>12977</REV_AT_EPOCH><BSTAR>.23868856E-3</BSTAR><MEAN_MOTION_DOT>.112E-5</MEAN_MOTION_DOT><MEAN_MOTION_DDOT>0</MEAN_MOTION_DDOT></tleParameters></data></segment></body></omm>
<omm id="CCSDS_OMM_VERS" version="2.0">
<header><CREATION_DATE/><ORIGINATOR/></header><body><segment><metadata><OBJECT_NAME>ONEWEB-0566</OBJECT_NAME><OBJECT_ID>2023-043R</OBJECT_ID><CENTER_NAME>EARTH</CENTER_NAME><REF_FRAME>TEME</REF_FRAME><TIME_SYSTEM>UTC</TIME_SYSTEM><MEAN_ELEMENT_THEORY>SGP4</MEAN_ELEMENT_THEORY></metadata><data><meanElements><EPOCH>2025-11-13T14:46:05.298240</EPOCH><MEAN_MOTION>13.21827828</MEAN_MOTION><ECCENTRICITY>.00022169</ECCENTRICITY><INCLINATION>87.9182</INCLINATION><RA_OF_ASC_NODE>286.9776</RA_OF_ASC_NODE><ARG_OF_PERICENTER>85.0838</ARG_OF_PERICENTER><MEAN_ANOMALY>275.0549</MEAN_ANOMALY></meanElements><tleParameters><EPHEMERIS_TYPE>0</EPHEMERIS_TYPE><CLASSIFICATION_TYPE>U</CLASSIFICATION_TYPE><NORAD_CAT_ID>56061</NORAD_CAT_ID><ELEMENT_SET_NO>999</ELEMENT_SET_NO><REV_AT_EPOCH>12975</REV_AT_EPOCH><BSTAR>.20889679E-3</BSTAR><MEAN_MOTION_DOT>.99E-6</MEAN_MOTION_DOT><MEAN_MOTION_DDOT>0</MEAN_MOTION_DDOT></tleParameters></data></segment></body></omm>
<omm id="CCSDS_OMM_VERS" version="2.0">
<header><CREATION_DATE/><ORIGINATOR/></header><body><segment><metadata><OBJECT_NAME>ONEWEB-0568</OBJECT_NAME><OBJECT_ID>2023-043S</OBJECT_ID><CENTER_NAME>EARTH</CENTER_NAME><REF_FRAME>TEME</REF_FRAME><TIME_SYSTEM>UTC</TIME_SYSTEM><MEAN_ELEMENT_THEORY>SGP4</MEAN_ELEMENT_THEORY></metadata><data><meanElements><EPOCH>2025-11-13T07:57:26.098848</EPOCH><MEAN_MOTION>13.16597025</MEAN_MOTION><ECCENTRICITY>.00016628</ECCENTRICITY><INCLINATION>87.9016</INCLINATION><RA_OF_ASC_NODE>271.7566</RA_OF_ASC_NODE><ARG_OF_PERICENTER>71.9497</ARG_OF_PERICENTER><MEAN_ANOMALY>288.1815</MEAN_ANOMALY></meanElements><tleParameters><EPHEMERIS_TYPE>0</EPHEMERIS_TYPE><CLASSIFICATION_TYPE>U</CLASSIFICATION_TYPE><NORAD_CAT_ID>56062</NORAD_CAT_ID><ELEMENT_SET_NO>999</ELEMENT_SET_NO><REV_AT_EPOCH>13057</REV_AT_EPOCH><BSTAR>.57805393E-3</BSTAR><MEAN_MOTION_DOT>.234E-5</MEAN_MOTION_DOT><MEAN_MOTION_DDOT>0</MEAN_MOTION_DDOT></tleParameters></data></segment></body></omm>
<omm id="CCSDS_OMM_VERS" version="2.0">
<header><CREATION_DATE/><ORIGINATOR/></header><body><segment><metadata><OBJECT_NAME>ONEWEB-0574</OBJECT_NAME><OBJECT_ID>2023-043T</OBJECT_ID><CENTER_NAME>EARTH</CENTER_NAME><REF_FRAME>TEME</REF_FRAME><TIME_SYSTEM>UTC</TIME_SYSTEM><MEAN_ELEMENT_THEORY>SGP4</MEAN_ELEMENT_THEORY></metadata><data><meanElements><EPOCH>2025-11-13T09:09:34.099488</EPOCH><MEAN_MOTION>13.21828006</MEAN_MOTION><ECCENTRICITY>.00017282</ECCENTRICITY><INCLINATION>87.9179</INCLINATION><RA_OF_ASC_NODE>287.0128</RA_OF_ASC_NODE><ARG_OF_PERICENTER>87.5573</ARG_OF_PERICENTER><MEAN_ANOMALY>272.5759</MEAN_ANOMALY></meanElements><tleParameters><EPHEMERIS_TYPE>0</EPHEMERIS_TYPE><CLASSIFICATION_TYPE>U</CLASSIFICATION_TYPE><NORAD_CAT_ID>56063</NORAD_CAT_ID><ELEMENT_SET_NO>999</ELEMENT_SET_NO><REV_AT_EPOCH>12976</REV_AT_EPOCH><BSTAR>.22426359E-3</BSTAR><MEAN_MOTION_DOT>.106E-5</MEAN_MOTION_DOT><MEAN_MOTION_DDOT>0</MEAN_MOTION_DDOT></tleParameters></data></segment></body></omm>
<omm id="CCSDS_OMM_VERS" version="2.0">
<header><CREATION_DATE/><ORIGINATOR/></header><body><segment><metadata><OBJECT_NAME>ONEWEB-0575</OBJECT_NAME><OBJECT_ID>2023-043U</OBJECT_ID><CENTER_NAME>EARTH</CENTER_NAME><REF_FRAME>TEME</REF_FRAME><TIME_SYSTEM>UTC</TIME_SYSTEM><MEAN_ELEMENT_THEORY>SGP4</MEAN_ELEMENT_THEORY></metadata><data><meanElements><EPOCH>2025-11-13T09:37:45.519456</EPOCH><MEAN_MOTION>13.16593168</MEAN_MOTION><ECCENTRICITY>.0001432</ECCENTRICITY><INCLINATION>87.9010</INCLINATION><RA_OF_ASC_NODE>271.7441</RA_OF_ASC_NODE><ARG_OF_PERICENTER>83.0351</ARG_OF_PERICENTER><MEAN_ANOMALY>277.0943</MEAN_ANOMALY></meanElements><tleParameters><EPHEMERIS_TYPE>0</EPHEMERIS_TYPE><CLASSIFICATION_TYPE>U</CLASSIFICATION_TYPE><NORAD_CAT_ID>56064</NORAD_CAT_ID><ELEMENT_SET_NO>999</ELEMENT_SET_NO><REV_AT_EPOCH>13057</REV_AT_EPOCH><BSTAR>.52438431E-3</BSTAR><MEAN_MOTION_DOT>.213E-5</MEAN_MOTION_DOT><MEAN_MOTION_DDOT>0</MEAN_MOTION_DDOT></tleParameters></data></segment></body></omm>
<omm id="CCSDS_OMM_VERS" version="2.0">
<header><CREATION_DATE/><ORIGINATOR/></header><body><segment><metadata><OBJECT_NAME>ONEWEB-0576</OBJECT_NAME><OBJECT_ID>2023-043V</OBJECT_ID><CENTER_NAME>EARTH</CENTER_NAME><REF_FRAME>TEME</REF_FRAME><TIME_SYSTEM>UTC</TIME_SYSTEM><MEAN_ELEMENT_THEORY>SGP4</MEAN_ELEMENT_THEORY></metadata><data><meanElements><EPOCH>2025-11-13T14:38:43.723392</EPOCH><MEAN_MOTION>13.16595043</MEAN_MOTION><ECCENTRICITY>.00017101</ECCENTRICITY><INCLINATION>87.9018</INCLINATION><RA_OF_ASC_NODE>271.7017</RA_OF_ASC_NODE><ARG_OF_PERICENTER>77.3491</ARG_OF_PERICENTER><MEAN_ANOMALY>282.7831</MEAN_ANOMALY></meanElements><tleParameters><EPHEMERIS_TYPE>0</EPHEMERIS_TYPE><CLASSIFICATION_TYPE>U</CLASSIFICATION_TYPE><NORAD_CAT_ID>56065</NORAD_CAT_ID><ELEMENT_SET_NO>999</ELEMENT_SET_NO><REV_AT_EPOCH>13059</REV_AT_EPOCH><BSTAR>.632273E-4</BSTAR><MEAN_MOTION_DOT>.37E-6</MEAN_MOTION_DOT><MEAN_MOTION_DDOT>0</MEAN_MOTION_DDOT></tleParameters></data></segment></body></omm>
<omm id="CCSDS_OMM_VERS" version="2.0">
<header><CREATION_DATE/><ORIGINATOR/></header><body><segment><metadata><OBJECT_NAME>ONEWEB-0577</OBJECT_NAME><OBJECT_ID>2023-043W</OBJECT_ID><CENTER_NAME>EARTH</CENTER_NAME><REF_FRAME>TEME</REF_FRAME><TIME_SYSTEM>UTC</TIME_SYSTEM><MEAN_ELEMENT_THEORY>SGP4</MEAN_ELEMENT_THEORY></metadata><data><meanElements><EPOCH>2025-11-13T14:47:50.701920</EPOCH><MEAN_MOTION>13.16595138</MEAN_MOTION><ECCENTRICITY>.00012297</ECCENTRICITY><INCLINATION>87.9014</INCLINATION><RA_OF_ASC_NODE>271.7002</RA_OF_ASC_NODE><ARG_OF_PERICENTER>90.5770</ARG_OF_PERICENTER><MEAN_ANOMALY>269.5502</MEAN_ANOMALY></meanElements><tleParameters><EPHEMERIS_TYPE>0</EPHEMERIS_TYPE><CLASSIFICATION_TYPE>U</CLASSIFICATION_TYPE><NORAD_CAT_ID>56066</NORAD_CAT_ID><ELEMENT_SET_NO>999</ELEMENT_SET_NO><REV_AT_EPOCH>13062</REV_AT_EPOCH><BSTAR>.86004526E-4</BSTAR><MEAN_MOTION_DOT>.46E-6</MEAN_MOTION_DOT><MEAN_MOTION_DDOT>0</MEAN_MOTION_DDOT></tleParameters></data></segment></body></omm>

</ndm>
